{
  "type": "FeatureCollection",
  "features": [
    {
      "type": "Feature",
      "properties": {
        "norad_id": 31175,
        "name": "FENGYUN 1C DEB",
        "group": "fengyun-1c-debris",
        "lat": 71.58933308163263,
        "lon": -30.10310555168816,
        "alt_km": 661.0547815876116,
        "timestamp": "2025-12-21T22:41:41.740718+00:00",
        "meta_object_name": "FENGYUN 1C DEB",
        "meta_object_id": "1999-025BJD",
        "meta_epoch": "2025-12-19T17:44:11.172480",
        "meta_mean_motion": 14.6030748,
        "meta_eccentricity": 0.00743604,
        "meta_inclination": 98.3966,
        "meta_ra_of_asc_node": 354.0042,
        "meta_arg_of_pericenter": 143.5954,
        "meta_mean_anomaly": 217.0335,
        "meta_ephemeris_type": 0,
        "meta_classification_type": "U",
        "meta_norad_cat_id": 31175,
        "meta_element_set_no": 999,
        "meta_rev_at_epoch": 65741,
        "meta_bstar": 0.0024269531,
        "meta_mean_motion_dot": 0.00012157,
        "meta_mean_motion_ddot": 0,
        "tle_line1": "1 31175U 99025BJD 25353.73901820  .00012157  00000+0  24270-2 0  9992",
        "tle_line2": "2 31175  98.3966 354.0042 0074360 143.5954 217.0335 14.60307480657416"
      },
      "geometry": {
        "type": "Point",
        "coordinates": [
          -30.10310555168816,
          71.58933308163263
        ]
      }
    },
    {
      "type": "Feature",
      "properties": {
        "norad_id": 31177,
        "name": "FENGYUN 1C DEB",
        "group": "fengyun-1c-debris",
        "lat": 61.51357925552834,
        "lon": -108.03599189622082,
        "alt_km": 1172.1796161953816,
        "timestamp": "2025-12-21T22:41:41.740728+00:00",
        "meta_object_name": "FENGYUN 1C DEB",
        "meta_object_id": "1999-025BJF",
        "meta_epoch": "2025-12-19T17:38:35.721888",
        "meta_mean_motion": 13.62390825,
        "meta_eccentricity": 0.03085768,
        "meta_inclination": 98.7594,
        "meta_ra_of_asc_node": 266.4801,
        "meta_arg_of_pericenter": 295.8584,
        "meta_mean_anomaly": 88.4957,
        "meta_ephemeris_type": 0,
        "meta_classification_type": "U",
        "meta_norad_cat_id": 31177,
        "meta_element_set_no": 999,
        "meta_rev_at_epoch": 66307,
        "meta_bstar": 0.0031990454,
        "meta_mean_motion_dot": 3.374e-05,
        "meta_mean_motion_ddot": 0,
        "tle_line1": "1 31177U 99025BJF 25353.73513567  .00003374  00000+0  31990-2 0  9999",
        "tle_line2": "2 31177  98.7594 266.4801 0308576 295.8584  88.4957 13.62390825663072"
      },
      "geometry": {
        "type": "Point",
        "coordinates": [
          -108.03599189622082,
          61.51357925552834
        ]
      }
    },
    {
      "type": "Feature",
      "properties": {
        "norad_id": 31178,
        "name": "FENGYUN 1C DEB",
        "group": "fengyun-1c-debris",
        "lat": -41.48323074630081,
        "lon": 7.430116476958345,
        "alt_km": 744.1205826760051,
        "timestamp": "2025-12-21T22:41:41.740738+00:00",
        "meta_object_name": "FENGYUN 1C DEB",
        "meta_object_id": "1999-025BJG",
        "meta_epoch": "2025-12-18T07:05:42.469152",
        "meta_mean_motion": 14.22259738,
        "meta_eccentricity": 0.01258717,
        "meta_inclination": 99.5125,
        "meta_ra_of_asc_node": 354.9683,
        "meta_arg_of_pericenter": 299.9049,
        "meta_mean_anomaly": 58.9671,
        "meta_ephemeris_type": 0,
        "meta_classification_type": "U",
        "meta_norad_cat_id": 31178,
        "meta_element_set_no": 999,
        "meta_rev_at_epoch": 95894,
        "meta_bstar": 0.0016924306,
        "meta_mean_motion_dot": 4.025e-05,
        "meta_mean_motion_ddot": 0,
        "tle_line1": "1 31178U 99025BJG 25352.29563043  .00004025  00000+0  16924-2 0  9998",
        "tle_line2": "2 31178  99.5125 354.9683 0125871 299.9049  58.9671 14.22259738958941"
      },
      "geometry": {
        "type": "Point",
        "coordinates": [
          7.430116476958345,
          -41.48323074630081
        ]
      }
    },
    {
      "type": "Feature",
      "properties": {
        "norad_id": 31179,
        "name": "FENGYUN 1C DEB",
        "group": "fengyun-1c-debris",
        "lat": -59.478236649894534,
        "lon": 179.99791569037615,
        "alt_km": 939.2943996441554,
        "timestamp": "2025-12-21T22:41:41.740748+00:00",
        "meta_object_name": "FENGYUN 1C DEB",
        "meta_object_id": "1999-025BJH",
        "meta_epoch": "2025-12-18T07:16:13.358496",
        "meta_mean_motion": 13.91941548,
        "meta_eccentricity": 0.02152306,
        "meta_inclination": 99.0195,
        "meta_ra_of_asc_node": 12.0814,
        "meta_arg_of_pericenter": 345.6132,
        "meta_mean_anomaly": 13.8961,
        "meta_ephemeris_type": 0,
        "meta_classification_type": "U",
        "meta_norad_cat_id": 31179,
        "meta_element_set_no": 999,
        "meta_rev_at_epoch": 62018,
        "meta_bstar": 0.00082156675,
        "meta_mean_motion_dot": 1.222e-05,
        "meta_mean_motion_ddot": 0,
        "tle_line1": "1 31179U 99025BJH 25352.30293239  .00001222  00000+0  82157-3 0  9996",
        "tle_line2": "2 31179  99.0195  12.0814 0215230 345.6132  13.8961 13.91941548620189"
      },
      "geometry": {
        "type": "Point",
        "coordinates": [
          179.99791569037615,
          -59.478236649894534
        ]
      }
    },
    {
      "type": "Feature",
      "properties": {
        "norad_id": 31180,
        "name": "FENGYUN 1C DEB",
        "group": "fengyun-1c-debris",
        "lat": -6.165296088245125,
        "lon": 128.14972677223827,
        "alt_km": 721.0773581075418,
        "timestamp": "2025-12-21T22:41:41.740758+00:00",
        "meta_object_name": "FENGYUN 1C DEB",
        "meta_object_id": "1999-025BJJ",
        "meta_epoch": "2025-12-21T04:17:57.856704",
        "meta_mean_motion": 13.70348953,
        "meta_eccentricity": 0.04980395,
        "meta_inclination": 99.2181,
        "meta_ra_of_asc_node": 126.4066,
        "meta_arg_of_pericenter": 37.9126,
        "meta_mean_anomaly": 140.4433,
        "meta_ephemeris_type": 0,
        "meta_classification_type": "U",
        "meta_norad_cat_id": 31180,
        "meta_element_set_no": 999,
        "meta_rev_at_epoch": 64182,
        "meta_bstar": 0.00012928341,
        "meta_mean_motion_dot": 2.31e-06,
        "meta_mean_motion_ddot": 0,
        "tle_line1": "1 31180U 99025BJJ 25355.17914186  .00000231  00000+0  12928-3 0  9995",
        "tle_line2": "2 31180  99.2181 126.4066 0498039  37.9126 140.4433 13.70348953641824"
      },
      "geometry": {
        "type": "Point",
        "coordinates": [
          128.14972677223827,
          -6.165296088245125
        ]
      }
    },
    {
      "type": "Feature",
      "properties": {
        "norad_id": 31181,
        "name": "FENGYUN 1C DEB",
        "group": "fengyun-1c-debris",
        "lat": -1.216161293578181,
        "lon": -151.88445341612424,
        "alt_km": 879.0467309164687,
        "timestamp": "2025-12-21T22:41:41.740768+00:00",
        "meta_object_name": "FENGYUN 1C DEB",
        "meta_object_id": "1999-025BJK",
        "meta_epoch": "2025-12-21T01:42:28.982592",
        "meta_mean_motion": 14.11912678,
        "meta_eccentricity": 0.00478932,
        "meta_inclination": 98.7784,
        "meta_ra_of_asc_node": 27.4477,
        "meta_arg_of_pericenter": 51.4256,
        "meta_mean_anomaly": 7.0118,
        "meta_ephemeris_type": 0,
        "meta_classification_type": "U",
        "meta_norad_cat_id": 31181,
        "meta_element_set_no": 999,
        "meta_rev_at_epoch": 95885,
        "meta_bstar": 0.00060845685,
        "meta_mean_motion_dot": 1.081e-05,
        "meta_mean_motion_ddot": 0,
        "tle_line1": "1 31181U 99025BJK 25355.07116878  .00001081  00000+0  60846-3 0  9993",
        "tle_line2": "2 31181  98.7784  27.4477 0047893  51.4256   7.0118 14.11912678958856"
      },
      "geometry": {
        "type": "Point",
        "coordinates": [
          -151.88445341612424,
          -1.216161293578181
        ]
      }
    },
    {
      "type": "Feature",
      "properties": {
        "norad_id": 31182,
        "name": "FENGYUN 1C DEB",
        "group": "fengyun-1c-debris",
        "lat": 59.68129549064212,
        "lon": -30.5821631620962,
        "alt_km": 826.9929721501403,
        "timestamp": "2025-12-21T22:41:41.740779+00:00",
        "meta_object_name": "FENGYUN 1C DEB",
        "meta_object_id": "1999-025BJL",
        "meta_epoch": "2025-12-17T10:29:25.287072",
        "meta_mean_motion": 14.14559703,
        "meta_eccentricity": 0.00234665,
        "meta_inclination": 98.6819,
        "meta_ra_of_asc_node": 340.1808,
        "meta_arg_of_pericenter": 123.4909,
        "meta_mean_anomaly": 31.1675,
        "meta_ephemeris_type": 0,
        "meta_classification_type": "U",
        "meta_norad_cat_id": 31182,
        "meta_element_set_no": 999,
        "meta_rev_at_epoch": 96147,
        "meta_bstar": 0.00031818865,
        "meta_mean_motion_dot": 5.7e-06,
        "meta_mean_motion_ddot": 0,
        "tle_line1": "1 31182U 99025BJL 25351.43709823  .00000570  00000+0  31819-3 0  9998",
        "tle_line2": "2 31182  98.6819 340.1808 0023466 123.4909  31.1675 14.14559703961470"
      },
      "geometry": {
        "type": "Point",
        "coordinates": [
          -30.5821631620962,
          59.68129549064212
        ]
      }
    }
  ]
}